{
  "type": "FeatureCollection",
  "features": [
    {
      "type": "Feature",
      "properties": {
        "norad_id": 40797,
        "name": "COSMOS 2251 DEB",
        "group": "cosmos-2251-debris",
        "lat": 48.164351297029846,
        "lon": -106.5940601512814,
        "alt_km": 555.6662261647025,
        "timestamp": "2025-12-14T05:42:18.861343+00:00",
        "meta_object_name": "COSMOS 2251 DEB",
        "meta_object_id": "1993-036BWA",
        "meta_epoch": "2025-11-19T18:43:16.602528",
        "meta_mean_motion": 15.10509474,
        "meta_eccentricity": 0.00703947,
        "meta_inclination": 73.92,
        "meta_ra_of_asc_node": 143.0892,
        "meta_arg_of_pericenter": 60.6639,
        "meta_mean_anomaly": 300.156,
        "meta_ephemeris_type": 0,
        "meta_classification_type": "U",
        "meta_norad_cat_id": 40797,
        "meta_element_set_no": 999,
        "meta_rev_at_epoch": 64297,
        "meta_bstar": 0.00072810385,
        "meta_mean_motion_dot": 0.00012707,
        "meta_mean_motion_ddot": 0,
        "tle_line1": "1 40797U 93036BWA 25323.78005327  .00012707  00000+0  72810-3 0  9992",
        "tle_line2": "2 40797  73.9200 143.0892 0070394  60.6639 300.1560 15.10509474642979"
      },
      "geometry": {
        "type": "Point",
        "coordinates": [
          -106.5940601512814,
          48.164351297029846
        ]
      }
    },
    {
      "type": "Feature",
      "properties": {
        "norad_id": 40799,
        "name": "COSMOS 2251 DEB",
        "group": "cosmos-2251-debris",
        "lat": 60.501924603321186,
        "lon": 125.9572397948556,
        "alt_km": 567.2315057778005,
        "timestamp": "2025-12-14T05:42:18.861354+00:00",
        "meta_object_name": "COSMOS 2251 DEB",
        "meta_object_id": "1993-036BWC",
        "meta_epoch": "2025-12-13T13:22:39.892224",
        "meta_mean_motion": 14.96671954,
        "meta_eccentricity": 0.01192057,
        "meta_inclination": 73.926,
        "meta_ra_of_asc_node": 96.6992,
        "meta_arg_of_pericenter": 338.4049,
        "meta_mean_anomaly": 21.2129,
        "meta_ephemeris_type": 0,
        "meta_classification_type": "U",
        "meta_norad_cat_id": 40799,
        "meta_element_set_no": 999,
        "meta_rev_at_epoch": 49989,
        "meta_bstar": 0.00041648324,
        "meta_mean_motion_dot": 5.451e-05,
        "meta_mean_motion_ddot": 0,
        "tle_line1": "1 40799U 93036BWC 25347.55740616  .00005451  00000+0  41648-3 0  9995",
        "tle_line2": "2 40799  73.9260  96.6992 0119205 338.4049  21.2129 14.96671954499896"
      },
      "geometry": {
        "type": "Point",
        "coordinates": [
          125.9572397948556,
          60.501924603321186
        ]
      }
    },
    {
      "type": "Feature",
      "properties": {
        "norad_id": 40802,
        "name": "COSMOS 2251 DEB",
        "group": "cosmos-2251-debris",
        "lat": 7.905196507198453,
        "lon": 152.35459578680482,
        "alt_km": 660.3931560975188,
        "timestamp": "2025-12-14T05:42:18.861364+00:00",
        "meta_object_name": "COSMOS 2251 DEB",
        "meta_object_id": "1993-036BWF",
        "meta_epoch": "2025-12-09T18:25:18.853248",
        "meta_mean_motion": 14.77560234,
        "meta_eccentricity": 0.00632236,
        "meta_inclination": 74.04,
        "meta_ra_of_asc_node": 158.8434,
        "meta_arg_of_pericenter": 258.1677,
        "meta_mean_anomaly": 101.2403,
        "meta_ephemeris_type": 0,
        "meta_classification_type": "U",
        "meta_norad_cat_id": 40802,
        "meta_element_set_no": 999,
        "meta_rev_at_epoch": 64365,
        "meta_bstar": 0.0011312786,
        "meta_mean_motion_dot": 8.327e-05,
        "meta_mean_motion_ddot": 0,
        "tle_line1": "1 40802U 93036BWF 25343.76757932  .00008327  00000+0  11313-2 0  9998",
        "tle_line2": "2 40802  74.0400 158.8434 0063223 258.1677 101.2403 14.77560234643650"
      },
      "geometry": {
        "type": "Point",
        "coordinates": [
          152.35459578680482,
          7.905196507198453
        ]
      }
    },
    {
      "type": "Feature",
      "properties": {
        "norad_id": 40803,
        "name": "COSMOS 2251 DEB",
        "group": "cosmos-2251-debris",
        "lat": 65.30580385464957,
        "lon": 87.64869486317986,
        "alt_km": 737.9990699559348,
        "timestamp": "2025-12-14T05:42:18.861375+00:00",
        "meta_object_name": "COSMOS 2251 DEB",
        "meta_object_id": "1993-036BWG",
        "meta_epoch": "2025-12-05T22:55:29.451072",
        "meta_mean_motion": 14.51792027,
        "meta_eccentricity": 0.00362816,
        "meta_inclination": 74.0122,
        "meta_ra_of_asc_node": 64.6912,
        "meta_arg_of_pericenter": 281.8159,
        "meta_mean_anomaly": 77.8934,
        "meta_ephemeris_type": 0,
        "meta_classification_type": "U",
        "meta_norad_cat_id": 40803,
        "meta_element_set_no": 999,
        "meta_rev_at_epoch": 58654,
        "meta_bstar": 0.00062935795,
        "meta_mean_motion_dot": 2.525e-05,
        "meta_mean_motion_ddot": 0,
        "tle_line1": "1 40803U 93036BWG 25339.95520198  .00002525  00000+0  62936-3 0  9999",
        "tle_line2": "2 40803  74.0122  64.6912 0036281 281.8159  77.8934 14.51792027586549"
      },
      "geometry": {
        "type": "Point",
        "coordinates": [
          87.64869486317986,
          65.30580385464957
        ]
      }
    },
    {
      "type": "Feature",
      "properties": {
        "norad_id": 40808,
        "name": "COSMOS 2251 DEB",
        "group": "cosmos-2251-debris",
        "lat": 64.59546172762686,
        "lon": 179.63185945550688,
        "alt_km": 664.4341456842403,
        "timestamp": "2025-12-14T05:42:18.861385+00:00",
        "meta_object_name": "COSMOS 2251 DEB",
        "meta_object_id": "1993-036BWM",
        "meta_epoch": "2025-12-12T17:28:24.743424",
        "meta_mean_motion": 14.67479403,
        "meta_eccentricity": 0.00092278,
        "meta_inclination": 74.041,
        "meta_ra_of_asc_node": 145.4936,
        "meta_arg_of_pericenter": 182.1345,
        "meta_mean_anomaly": 195.7768,
        "meta_ephemeris_type": 0,
        "meta_classification_type": "U",
        "meta_norad_cat_id": 40808,
        "meta_element_set_no": 999,
        "meta_rev_at_epoch": 63619,
        "meta_bstar": 0.00245787,
        "meta_mean_motion_dot": 0.00013931,
        "meta_mean_motion_ddot": 0,
        "tle_line1": "1 40808U 93036BWM 25346.72806416  .00013931  00000+0  24579-2 0  9990",
        "tle_line2": "2 40808  74.0410 145.4936 0009227 182.1345 195.7768 14.67479403636197"
      },
      "geometry": {
        "type": "Point",
        "coordinates": [
          179.63185945550688,
          64.59546172762686
        ]
      }
    },
    {
      "type": "Feature",
      "properties": {
        "norad_id": 40810,
        "name": "COSMOS 2251 DEB",
        "group": "cosmos-2251-debris",
        "lat": -56.0552274503792,
        "lon": 46.71869267940382,
        "alt_km": 701.100571743802,
        "timestamp": "2025-12-14T05:42:18.861395+00:00",
        "meta_object_name": "COSMOS 2251 DEB",
        "meta_object_id": "1993-036BWP",
        "meta_epoch": "2025-12-11T13:47:10.605120",
        "meta_mean_motion": 14.58706242,
        "meta_eccentricity": 0.0018546,
        "meta_inclination": 74.0365,
        "meta_ra_of_asc_node": 76.9551,
        "meta_arg_of_pericenter": 228.6386,
        "meta_mean_anomaly": 131.3185,
        "meta_ephemeris_type": 0,
        "meta_classification_type": "U",
        "meta_norad_cat_id": 40810,
        "meta_element_set_no": 999,
        "meta_rev_at_epoch": 61666,
        "meta_bstar": 0.0012743494,
        "meta_mean_motion_dot": 5.935e-05,
        "meta_mean_motion_ddot": 0,
        "tle_line1": "1 40810U 93036BWP 25345.57442830  .00005935  00000+0  12743-2 0  9996",
        "tle_line2": "2 40810  74.0365  76.9551 0018546 228.6386 131.3185 14.58706242616668"
      },
      "geometry": {
        "type": "Point",
        "coordinates": [
          46.71869267940382,
          -56.0552274503792
        ]
      }
    },
    {
      "type": "Feature",
      "properties": {
        "norad_id": 46271,
        "name": "COSMOS 2251 DEB",
        "group": "cosmos-2251-debris",
        "lat": 38.119051829858215,
        "lon": -117.57145572599939,
        "alt_km": 702.0232173579716,
        "timestamp": "2025-12-14T05:42:18.861406+00:00",
        "meta_object_name": "COSMOS 2251 DEB",
        "meta_object_id": "1993-036BWT",
        "meta_epoch": "2025-12-13T12:31:04.945728",
        "meta_mean_motion": 14.51432148,
        "meta_eccentricity": 0.0040256,
        "meta_inclination": 74.0483,
        "meta_ra_of_asc_node": 76.7438,
        "meta_arg_of_pericenter": 198.1951,
        "meta_mean_anomaly": 161.7773,
        "meta_ephemeris_type": 0,
        "meta_classification_type": "U",
        "meta_norad_cat_id": 46271,
        "meta_element_set_no": 999,
        "meta_rev_at_epoch": 84653,
        "meta_bstar": 0.00056149048,
        "meta_mean_motion_dot": 2.237e-05,
        "meta_mean_motion_ddot": 0,
        "tle_line1": "1 46271U 93036BWT 25347.52158502  .00002237  00000+0  56149-3 0  9991",
        "tle_line2": "2 46271  74.0483  76.7438 0040256 198.1951 161.7773 14.51432148846535"
      },
      "geometry": {
        "type": "Point",
        "coordinates": [
          -117.57145572599939,
          38.119051829858215
        ]
      }
    }
  ]
}